{
    "links": {
        "self": "http://www.neowsapp.com/rest/v1/neo/3313558?api_key=iIulBulltgU6a56xZRHN4H3l9WmuAYTsLGpBGhQ2"
    },
    "id": "3313558",
    "neo_reference_id": "3313558",
    "name": "(2006 BO7)",
    "designation": "2006 BO7",
    "nasa_jpl_url": "http://ssd.jpl.nasa.gov/sbdb.cgi?sstr=3313558",
    "absolute_magnitude_h": 29.3,
    "estimated_diameter": {
        "kilometers": {
            "estimated_diameter_min": 0.0036690614,
            "estimated_diameter_max": 0.0082042706
        },
        "meters": {
            "estimated_diameter_min": 3.6690613753,
            "estimated_diameter_max": 8.2042706488
        },
        "miles": {
            "estimated_diameter_min": 0.0022798483,
            "estimated_diameter_max": 0.0050978959
        },
        "feet": {
            "estimated_diameter_min": 12.0376033226,
            "estimated_diameter_max": 26.9168993155
        }
    },
    "is_potentially_hazardous_asteroid": false,
    "close_approach_data": [
        {
            "close_approach_date": "2006-01-25",
            "close_approach_date_full": "2006-Jan-25 14:54",
            "epoch_date_close_approach": 1138200840000,
            "relative_velocity": {
                "kilometers_per_second": "10.0156231366",
                "kilometers_per_hour": "36056.243291603",
                "miles_per_hour": "22403.947394163"
            },
            "miss_distance": {
                "astronomical": "0.0050104319",
                "lunar": "1.9490580091",
                "kilometers": "749549.940020053",
                "miles": "465748.7356726114"
            },
            "orbiting_body": "Earth"
        },
        {
            "close_approach_date": "2006-01-25",
            "close_approach_date_full": "2006-Jan-25 22:12",
            "epoch_date_close_approach": 1138227120000,
            "relative_velocity": {
                "kilometers_per_second": "9.5435598126",
                "kilometers_per_hour": "34356.8153254216",
                "miles_per_hour": "21347.9889448432"
            },
            "miss_distance": {
                "astronomical": "0.0036606786",
                "lunar": "1.4240039754",
                "kilometers": "547629.721314582",
                "miles": "340281.3297699516"
            },
            "orbiting_body": "Moon"
        },
        {
            "close_approach_date": "2011-06-25",
            "close_approach_date_full": "2011-Jun-25 13:44",
            "epoch_date_close_approach": 1309009440000,
            "relative_velocity": {
                "kilometers_per_second": "23.5682390754",
                "kilometers_per_hour": "84845.6606714954",
                "miles_per_hour": "52719.7939877967"
            },
            "miss_distance": {
                "astronomical": "0.4676965732",
                "lunar": "181.9339669748",
                "kilometers": "69966411.157019084",
                "miles": "43475111.9252439992"
            },
            "orbiting_body": "Earth"
        },
        {
            "close_approach_date": "2018-07-12",
            "close_approach_date_full": "2018-Jul-12 22:03",
            "epoch_date_close_approach": 1531432980000,
            "relative_velocity": {
                "kilometers_per_second": "12.9298569379",
                "kilometers_per_hour": "46547.4849765959",
                "miles_per_hour": "28922.7969844854"
            },
            "miss_distance": {
                "astronomical": "0.0652447763",
                "lunar": "25.3802179807",
                "kilometers": "9760479.563106481",
                "miles": "6064880.7682561978"
            },
            "orbiting_body": "Mars"
        }
    ],
    "orbital_data": {
        "orbit_id": "6",
        "orbit_determination_date": "2017-04-06 09:09:22",
        "first_observation_date": "2006-01-22",
        "last_observation_date": "2006-01-24",
        "data_arc_in_days": 2,
        "observations_used": 15,
        "orbit_uncertainty": "7",
        "minimum_orbit_intersection": ".0011185",
        "jupiter_tisserand_invariant": "4.585",
        "epoch_osculation": "2459000.5",
        "eccentricity": ".4033098386096248",
        "semi_major_axis": "1.435933316168995",
        "inclination": ".3404731492325904",
        "ascending_node_longitude": "294.6887350623504",
        "orbital_period": "628.4921171005556",
        "perihelion_distance": ".8568072821706944",
        "perihelion_argument": "248.069588839637",
        "aphelion_distance": "2.015059350167296",
        "perihelion_time": "2458830.469545844085",
        "mean_anomaly": "97.39336712529702",
        "mean_motion": ".5727995470504872",
        "equinox": "J2000",
        "orbit_class": {
            "orbit_class_type": "APO",
            "orbit_class_description": "Near-Earth asteroid orbits which cross the Earth’s orbit similar to that of 1862 Apollo",
            "orbit_class_range": "a (semi-major axis) > 1.0 AU; q (perihelion) < 1.017 AU"
        }
    },
    "is_sentry_object": false
}